P/2016 P5 (COIAS),e,7.0386,185.3665,33.7048,4.699548,0.0967431,0.05741055,89.5091,12/01.0/2025,2000,g 13.2,4.0
# From MPEC 2024-H50
C/2016 Q2 (PANSTARRS),h,05/11.1940/2021,109.3145,322.3528,84.5180,1.001909,7.079947,2000,6.0,4.0
# From MPEC 2023-J95
C/2016 Q4 (Kowalski),e,7.2363,271.2772,100.0297,17.05160,0.0139977,0.58214790,40.0399,12/01.0/2025,2000,g  7.0,4.0
# From MPEC 2021-N06
C/2016 R2 (PANSTARRS),e,58.3851,80.4705,33.1716,571.5468,0.0000721,0.99546098,0.0000,05/11.8986/2018,2000,g  7.0,4.0
# From MPEC 2022-K19
P/2016 R4 (Gibbs),e,10.8613,168.2581,174.0764,5.339184,0.0798899,0.47452332,273.3498,12/01.0/2025,2000,g 12.5,4.0
# From MPEC 2021-P47
C/2016 X1 (Lemmon),e,26.4675,256.3052,224.6486,3343,0.0000051,0.99773738,0.0000,05/01.4781/2019,2000,g  6.0,4.0
# From MPC114598
C/2017 AB5 (PANSTARRS),h,02/19.5519/2018,32.4456,42.6208,78.3871,1.000291,9.210618,2000,5.5,4.0
# From MPEC 2022-OB6
C/2017 B3 (LINEAR),e,54.2429,2.2717,284.7237,2844,0.0000065,0.99861749,0.0000,01/29.8349/2019,2000,g  6.0,4.0
# From MPC103847
P/2017 B4 (PANSTARRS),e,20.0584,121.4578,11.0197,4.410520,0.1064068,0.36495152,359.9130,01/05.0/2017,2000,g 14.5,4.0
# From MPEC 2022-OB6
P/2017 D1 (Fuls),e,20.7714,82.1870,8.1235,4.820628,0.0931212,0.43779909,320.3252,12/01.0/2025,2000,g 14.0,4.0
# From MPEC 2022-O08
C/2017 E3 (PANSTARRS),h,06/06.7039/2017,70.6672,220.7714,334.1534,1.004249,5.901572,2000,6.5,4.0
# From MPC114598
C/2017 F2 (PANSTARRS),h,11/26.3855/2017,42.5425,38.6237,134.7787,1.001787,6.900204,2000,7.5,4.0
# From MPC184408
P/2017 FL36 (PANSTARRS),e,15.6873,313.4455,90.4380,2.927676,0.1967522,0.03301780,22.2909,12/01.0/2025,2000,g 14.7,4.0
# From MPC115882
C/2017 K1 (PANSTARRS),e,154.0251,225.6557,4.1580,20058,0.0000003,0.99963785,0.0000,03/12.8558/2018,2000,g  7.0,4.0
# From MPEC 2025-WD0
C/2017 K2 (PANSTARRS),e,87.6385,88.2216,236.1568,1320,0.0000206,0.99863596,0.0000,12/18.1902/2022,2000,g  1.5,4.0
# From MPEC 2021-P47
C/2017 K5 (PANSTARRS),h,03/24.9689/2020,82.2801,102.4612,171.8967,1.002548,7.673667,2000,5.0,4.0
# From MPEC 2022-OB6
C/2017 M4 (ATLAS),e,105.6344,65.9969,167.3697,171695,0.0000000,0.99998117,0.0000,01/17.4778/2019,2000,g  6.0,4.0
# From MPC118841
C/2017 M5 (TOTAS),h,05/31.0018/2018,15.8691,216.3080,92.7964,1.002175,6.010069,2000,6.5,4.0
# From MPC114599
P/2017 P1 (PANSTARRS),e,7.6880,221.4707,122.7197,7.920185,0.0442182,0.30864543,120.4575,12/01.0/2025,2000,g 10.0,4.0
# From MPEC 2020-SI8
C/2017 S7 (Lemmon),e,124.2304,262.6480,187.7370,32711,0.0000002,0.99976644,0.0000,05/25.3913/2017,2000,g  7.0,4.0
# From MPEC 2022-OB6
P/2017 S8 (PANSTARRS),e,29.8412,191.4973,254.9444,2.778424,0.2128169,0.39115389,249.4309,12/01.0/2025,2000,g 16.0,4.0
# From MPEC 2024-A43
C/2017 T2 (PANSTARRS),e,57.2727,64.4165,92.7726,1676,0.0000144,0.99904409,0.0000,05/06.4463/2020,2000,g  5.0,4.0
# From MPC115882
P/2017 TW13 (Lemmon),e,44.8899,322.0958,120.0518,7.138680,0.0516746,0.71052556,140.4040,12/01.0/2025,2000,g 15.0,2.0
# From MPEC 2022-K19
P/2017 U3 (PANSTARRS),e,15.9249,165.0495,296.5696,4.918762,0.0903484,0.10093516,218.4496,12/01.0/2025,2000,g 11.0,4.0
# From MPEC 2023-CD7
C/2017 U4 (PANSTARRS),e,158.2026,245.9245,159.2142,9934,0.0000010,0.99921961,0.0000,09/22.2488/2018,2000,g  7.0,4.0
# From MPEC 2023-A50
C/2017 U7 (PANSTARRS),h,09/16.1841/2019,142.6400,276.3223,326.3819,1.002605,6.414954,2000,8.3,2.0
# From MPC114601
P/2017 W3 (Gibbs),e,18.1945,210.0400,327.7834,7.816927,0.0450972,0.50731572,127.7915,12/01.0/2025,2000,g 10.5,4.0
# From MPEC 2024-JU4
C/2018 A6 (Gibbs),e,77.1824,340.4798,264.2439,14.99257,0.0169781,0.79889748,39.6537,12/01.0/2025,2000,g  9.0,4.0
# From MPC114602
P/2018 H2 (PANSTARRS),e,7.4124,67.9875,119.0730,4.414247,0.1062721,0.53976767,309.8272,12/01.0/2025,2000,g 16.6,2.0
# From MPEC 2021-R75
C/2018 KJ3 (Lemmon),e,136.6201,91.6955,217.5097,653.5776,0.0000590,0.99446641,0.0000,09/08.1625/2019,2000,g 12.2,2.0
# From MPEC 2022-YN2
C/2018 N2 (ASASSN),h,11/12.0874/2019,77.4663,24.5433,25.3375,1.002090,3.136934,2000,6.0,4.0
# From MPC114603
P/2018 P4 (PANSTARRS),e,23.0704,353.1615,8.5137,6.697228,0.0568671,0.44866759,146.8455,12/01.0/2025,2000,g 12.0,4.0
# From MPEC 2022-QC6
C/2018 S2 (TESS),e,64.1119,85.1093,290.9768,14.36884,0.0180955,0.61753106,46.7486,12/01.0/2025,2000,g  7.5,4.0
# From MPEC 2023-D54
C/2018 S3 (TESS),e,78.3818,25.0486,263.9037,31617,0.0000002,0.99974640,0.0000,06/24.3215/2016,2000,g  6.0,4.0
# From MPC184408
C/2018 U1 (Lemmon),e,108.3263,75.5087,180.3154,18772,0.0000004,0.99973451,0.0000,11/01.8274/2021,2000,g  5.0,4.0
# From MPC181178
P/2018 VN2 (Leonard),e,18.2555,226.4336,138.9291,4.060730,0.1204475,0.47804960,328.9521,12/01.0/2025,2000,g 15.0,4.0
# From MPEC 2023-M14
A/2018 W3,e,104.8342,251.6805,313.8286,688.5217,0.0000546,0.99378525,0.0000,04/13.1959/2021,2000,g 10.5,2.0
# From MPC114605
P/2018 Y2 (Africano),e,11.6969,297.1092,162.4302,7.459127,0.0483807,0.47997547,122.0102,12/01.0/2025,2000,g 11.5,4.0
# From MPEC 2021-P47
P/2019 A2 (ATLAS),e,14.8765,139.3582,323.9928,5.710214,0.0722313,0.38334361,185.1147,12/01.0/2025,2000,g 10.5,4.0
# From MPEC 2022-M21
P/2019 A3 (PANSTARRS),e,15.3555,31.1948,325.5767,3.143892,0.1768083,0.26805623,112.8672,12/01.0/2025,2000,g 16.0,4.0
# From MPEC 2022-L66
P/2019 A4 (PANSTARRS),e,13.3064,119.3541,343.3168,2.614188,0.2331841,0.08749752,233.5909,12/01.0/2025,2000,g 15.0,4.0
# From MPEC 2021-P47
C/2019 A5 (PANSTARRS),e,67.5542,146.4947,355.8661,21.52285,0.0098708,0.70660334,23.3797,12/01.0/2025,2000,g  9.5,4.0
# From MPC115885
P/2019 B2 (Groeller),e,16.9470,175.6083,0.5046,3.931926,0.1264142,0.35770524,303.1201,12/01.0/2025,2000,g 14.5,4.0
# From MPEC 2024-JU4
C/2019 B3 (PANSTARRS),e,66.6215,358.3982,263.9996,3224,0.0000054,0.99788159,0.0000,01/19.3586/2021,2000,g  5.5,4.0
# From MPEC 2025-W75
C/2019 E3 (ATLAS),e,84.3228,347.1851,280.7232,6003,0.0000021,0.99828193,0.0000,11/15.7368/2023,2000,g  2.5,4.0
# From MPEC 2024-GJ3
C/2019 F1 (ATLAS-Africano),e,54.2692,38.6659,251.2803,395478,0.0000000,0.99999088,0.0000,06/20.8533/2021,2000,g  5.5,4.0
# From MPC114607
P/2019 GG21 (PANSTARRS),e,6.0812,340.5660,208.5874,7.468486,0.0482898,0.47169374,115.7633,12/01.0/2025,2000,g 12.0,4.0
# From MPEC 2024-GJ3
C/2019 K7 (Smith),h,06/16.7877/2020,103.4667,308.0462,27.3298,1.000016,4.472440,2000,6.0,4.0
# From MPEC 2025-W75
P/2019 LD2 (ATLAS),e,11.6501,178.2253,116.1404,5.156743,0.0841668,0.13357406,179.8315,12/01.0/2025,2000,g 12.0,4.0
# From MPC185656
C/2019 L3 (ATLAS),h,01/10.2043/2022,48.3469,290.7103,171.7864,1.003359,3.560745,2000,4.5,4.0
# From MPEC 2025-W75
P/2019 LM4 (Palomar),e,36.4132,72.8787,68.2207,5.701331,0.0724002,0.58638687,170.5147,12/01.0/2025,2000,g 12.9,4.0
# From MPEC 2023-JA2
C/2019 M4 (TESS),e,65.7014,52.6375,260.3266,47408,0.0000001,0.99980614,0.0000,09/08.8623/2019,2000,g  5.0,4.0
# From MPEC 2023-C45
C/2019 N1 (ATLAS),e,82.5691,13.4935,193.3397,944.8852,0.0000339,0.99819786,0.0000,11/30.4377/2020,2000,g  7.5,4.0
# From MPEC 2023-CD8
A/2019 N2,e,89.3191,276.2265,347.0334,1058,0.0000287,0.99816770,0.0000,08/22.3417/2019,2000,g 12.5,2.0
# From MPEC 2025-W75
C/2019 NJ3 (Lemmon),h,10/22.1526/2020,99.3156,142.4921,246.8804,1.001826,4.362087,2000,12.0,4.0
# From MPC185656
C/2019 O2 (PANSTARRS),e,93.2906,48.2650,129.5662,58.82427,0.0021846,0.83543648,2.1192,12/01.0/2025,2000,g  5.0,4.0
# From MPC182878
C/2019 O3 (Palomar),h,03/07.8124/2021,89.7918,300.4820,60.0845,1.002089,8.820341,2000,3.5,4.0
# From MPEC 2024-EF7
C/2019 Q1 (Lemmon),h,07/22.4421/2020,155.7145,42.4726,56.2459,1.002511,5.000648,2000,8.5,4.0
# From MPC117072
C/2019 Q3 (PANSTARRS),h,08/19.2262/2018,65.5865,151.4562,152.6859,1.000804,7.265019,2000,8.5,4.0
# From MPC117072
P/2019 S2 (PANSTARRS),e,10.4636,93.1793,216.8750,4.748056,0.0952643,0.20467964,236.3632,12/01.0/2025,2000,g 13.5,4.0
# From MPEC 2022-CN4
P/2019 S3 (PANSTARRS),e,8.6945,150.1400,213.1020,3.413673,0.1562684,0.47063778,357.1587,12/01.0/2025,2000,g 18.3,4.0
# From MPEC 2023-N01
A/2019 T1,e,120.8040,6.9218,90.9574,38.69850,0.0040941,0.88957062,7.2925,12/01.0/2025,2000,g 13.0,2.0
# From MPEC 2023-R20
C/2019 T2 (Lemmon),e,111.3491,155.6522,239.3720,2886,0.0000064,0.99908420,0.0000,04/22.3372/2021,2000,g  9.0,4.0
# From MPEC 2023-UR6
C/2019 T3 (ATLAS),e,121.8845,139.5487,112.4929,5526,0.0000024,0.99892267,0.0000,03/04.9460/2021,2000,g  6.8,4.0
# From MPC188408
C/2019 T4 (ATLAS),e,53.6245,199.8849,351.1110,889.1833,0.0000372,0.99523524,0.0000,06/08.7204/2022,2000,g  5.0,4.0
# From MPC118096
P/2019 U4 (PANSTARRS),e,11.6956,199.9957,181.0959,3.518160,0.1493588,0.47565243,337.8125,12/01.0/2025,2000,g 19.0,4.0
# From MPEC 2025-WD0
C/2019 U5 (PANSTARRS),e,113.5141,2.6009,181.4453,618865,0.0000000,0.99999414,0.0000,03/29.3334/2023,2000,g  4.5,4.0
# From MPEC 2022-L66
P/2019 V2 (Groeller),e,11.8074,189.1218,335.6507,7.495025,0.0480335,0.33206731,89.8366,12/01.0/2025,2000,g 10.0,4.0
# From MPEC 2023-A50
P/2019 W1 (PANSTARRS),e,23.4641,35.3528,18.9178,4.548412,0.1016048,0.26710692,243.2945,12/01.0/2025,2000,g 12.9,4.0
# From MPEC 2021-P47
P/2019 X1 (Pruyne),e,10.2435,43.6733,37.0360,6.180747,0.0641420,0.30367980,148.8747,12/01.0/2025,2000,g 10.4,4.0
# From MPEC 2020-C98
P/2019 X2 (Pan-STARRS),e,15.8948,250.8251,213.5432,3.633367,0.1423115,0.50050969,310.2900,12/01.0/2025,2000,g 18.0,4.0
# From MPEC 2023-A50
C/2020 A3 (ATLAS),e,146.6154,120.7962,268.2211,3698,0.0000044,0.99844411,0.0000,06/26.2148/2019,2000,g  8.0,4.0
# From MPEC 2023-KD6
P/2020 B4 (Sheppard),e,11.6019,185.9367,342.1082,7.975480,0.0437591,0.19311278,64.4027,12/01.0/2025,2000,g 10.5,4.0
# From MPC186629
C/2020 F2 (ATLAS),h,07/12.1168/2022,163.5899,250.2969,48.2253,1.001898,8.813681,2000,4.5,4.0
# From MPEC 2024-UQ8
C/2020 F5 (MASTER),e,52.2404,350.5586,310.5853,162.6763,0.0004750,0.97341323,0.0000,03/15.9441/2021,2000,g  6.5,3.2
# From MPEC 2024-A43
C/2020 F7 (Lemmon),e,93.9913,321.8146,228.0006,585.3630,0.0000696,0.99088434,0.0000,11/14.0644/2021,2000,g  7.0,4.0
# From MPC184409
